{
  "type": "FeatureCollection",
  "features": [
    {
      "type": "Feature",
      "properties": {
        "norad_id": 33376,
        "name": "GALAXY 19 (G-19)",
        "group": "intelsat",
        "lat": -0.01849020566175321,
        "lon": -33.46947936899303,
        "alt_km": 35781.19639110139,
        "timestamp": "2025-12-14T22:38:40.426998+00:00",
        "meta_object_name": "GALAXY 19 (G-19)",
        "meta_object_id": "2008-045A",
        "meta_epoch": "2025-12-14T06:06:31.968288",
        "meta_mean_motion": 1.00269863,
        "meta_eccentricity": 0.00025496,
        "meta_inclination": 0.0202,
        "meta_ra_of_asc_node": 6.8537,
        "meta_arg_of_pericenter": 260.0603,
        "meta_mean_anomaly": 170.8918,
        "meta_ephemeris_type": 0,
        "meta_classification_type": "U",
        "meta_norad_cat_id": 33376,
        "meta_element_set_no": 999,
        "meta_rev_at_epoch": 6304,
        "meta_bstar": 0,
        "meta_mean_motion_dot": 0,
        "meta_mean_motion_ddot": 0,
        "tle_line1": "1 33376U 08045A   25348.25453667  .00000000  00000+0  00000+0 0  9997",
        "tle_line2": "2 33376   0.0202   6.8537 0002549 260.0603 170.8918  1.00269863 63046"
      },
      "geometry": {
        "type": "Point",
        "coordinates": [
          -33.46947936899303,
          -0.01849020566175321
        ]
      }
    },
    {
      "type": "Feature",
      "properties": {
        "norad_id": 35493,
        "name": "FM-5",
        "group": "intelsat",
        "lat": 0.017528095446940867,
        "lon": -22.634709021639594,
        "alt_km": 35789.54725052488,
        "timestamp": "2025-12-14T22:38:40.427010+00:00",
        "meta_object_name": "FM-5",
        "meta_object_id": "2009-034A",
        "meta_epoch": "2025-12-14T04:39:14.730336",
        "meta_mean_motion": 1.00270096,
        "meta_eccentricity": 7.033e-05,
        "meta_inclination": 0.02,
        "meta_ra_of_asc_node": 289.1268,
        "meta_arg_of_pericenter": 224.1375,
        "meta_mean_anomaly": 273.5206,
        "meta_ephemeris_type": 0,
        "meta_classification_type": "U",
        "meta_norad_cat_id": 35493,
        "meta_element_set_no": 999,
        "meta_rev_at_epoch": 4478,
        "meta_bstar": 0,
        "meta_mean_motion_dot": -1.83e-06,
        "meta_mean_motion_ddot": 0,
        "tle_line1": "1 35493U 09034A   25348.19392049 -.00000183  00000+0  00000+0 0  9990",
        "tle_line2": "2 35493   0.0200 289.1268 0000703 224.1375 273.5206  1.00270096 44781"
      },
      "geometry": {
        "type": "Point",
        "coordinates": [
          -22.634709021639594,
          0.017528095446940867
        ]
      }
    },
    {
      "type": "Feature",
      "properties": {
        "norad_id": 36097,
        "name": "INTELSAT 14 (IS-14)",
        "group": "intelsat",
        "lat": 0.002440451420724455,
        "lon": 18.546029349016,
        "alt_km": 35789.28751090999,
        "timestamp": "2025-12-14T22:38:40.427022+00:00",
        "meta_object_name": "INTELSAT 14 (IS-14)",
        "meta_object_id": "2009-064A",
        "meta_epoch": "2025-12-14T06:21:23.046048",
        "meta_mean_motion": 1.00271838,
        "meta_eccentricity": 0.00024329,
        "meta_inclination": 0.0198,
        "meta_ra_of_asc_node": 43.4129,
        "meta_arg_of_pericenter": 227.4231,
        "meta_mean_anomaly": 222.7023,
        "meta_ephemeris_type": 0,
        "meta_classification_type": "U",
        "meta_norad_cat_id": 36097,
        "meta_element_set_no": 999,
        "meta_rev_at_epoch": 5875,
        "meta_bstar": 0,
        "meta_mean_motion_dot": -2.56e-06,
        "meta_mean_motion_ddot": 0,
        "tle_line1": "1 36097U 09064A   25348.26485007 -.00000256  00000+0  00000+0 0  9990",
        "tle_line2": "2 36097   0.0198  43.4129 0002432 227.4231 222.7023  1.00271838 58753"
      },
      "geometry": {
        "type": "Point",
        "coordinates": [
          18.546029349016,
          0.002440451420724455
        ]
      }
    },
    {
      "type": "Feature",
      "properties": {
        "norad_id": 36106,
        "name": "INTELSAT 15 (IS-15)",
        "group": "intelsat",
        "lat": -0.008004135912961535,
        "lon": 148.64666915377146,
        "alt_km": 35791.23705458161,
        "timestamp": "2025-12-14T22:38:40.427033+00:00",
        "meta_object_name": "INTELSAT 15 (IS-15)",
        "meta_object_id": "2009-067A",
        "meta_epoch": "2025-12-14T06:58:19.507584",
        "meta_mean_motion": 1.00272146,
        "meta_eccentricity": 0.00022591,
        "meta_inclination": 0.0155,
        "meta_ra_of_asc_node": 302.0775,
        "meta_arg_of_pericenter": 329.7584,
        "meta_mean_anomaly": 1.1112,
        "meta_ephemeris_type": 0,
        "meta_classification_type": "U",
        "meta_norad_cat_id": 36106,
        "meta_element_set_no": 999,
        "meta_rev_at_epoch": 3937,
        "meta_bstar": 0,
        "meta_mean_motion_dot": -1.67e-06,
        "meta_mean_motion_ddot": 0,
        "tle_line1": "1 36106U 09067A   25348.29050356 -.00000167  00000+0  00000+0 0  9993",
        "tle_line2": "2 36106   0.0155 302.0775 0002259 329.7584   1.1112  1.00272146 39370"
      },
      "geometry": {
        "type": "Point",
        "coordinates": [
          148.64666915377146,
          -0.008004135912961535
        ]
      }
    },
    {
      "type": "Feature",
      "properties": {
        "norad_id": 36131,
        "name": "DIRECTV 12",
        "group": "intelsat",
        "lat": -0.0019268511622115491,
        "lon": -39.22166092281585,
        "alt_km": 35784.66781288922,
        "timestamp": "2025-12-14T22:38:40.427045+00:00",
        "meta_object_name": "DIRECTV 12",
        "meta_object_id": "2009-075A",
        "meta_epoch": "2025-12-14T07:45:38.704032",
        "meta_mean_motion": 1.00268076,
        "meta_eccentricity": 8.414e-05,
        "meta_inclination": 0.0283,
        "meta_ra_of_asc_node": 147.4937,
        "meta_arg_of_pericenter": 218.9311,
        "meta_mean_anomaly": 90.5104,
        "meta_ephemeris_type": 0,
        "meta_classification_type": "U",
        "meta_norad_cat_id": 36131,
        "meta_element_set_no": 999,
        "meta_rev_at_epoch": 4470,
        "meta_bstar": 0,
        "meta_mean_motion_dot": -8.5e-07,
        "meta_mean_motion_ddot": 0,
        "tle_line1": "1 36131U 09075A   25348.32336463 -.00000085  00000+0  00000+0 0  9999",
        "tle_line2": "2 36131   0.0283 147.4937 0000841 218.9311  90.5104  1.00268076 44706"
      },
      "geometry": {
        "type": "Point",
        "coordinates": [
          -39.22166092281585,
          -0.0019268511622115491
        ]
      }
    },
    {
      "type": "Feature",
      "properties": {
        "norad_id": 36397,
        "name": "INTELSAT 16 (IS-16)",
        "group": "intelsat",
        "lat": 0.009454589561932415,
        "lon": -12.658795206865134,
        "alt_km": 35784.82168178439,
        "timestamp": "2025-12-14T22:38:40.427057+00:00",
        "meta_object_name": "INTELSAT 16 (IS-16)",
        "meta_object_id": "2010-006A",
        "meta_epoch": "2025-12-14T06:12:31.394016",
        "meta_mean_motion": 1.00271828,
        "meta_eccentricity": 0.00019888,
        "meta_inclination": 0.0087,
        "meta_ra_of_asc_node": 325.1292,
        "meta_arg_of_pericenter": 301.221,
        "meta_mean_anomaly": 193.7661,
        "meta_ephemeris_type": 0,
        "meta_classification_type": "U",
        "meta_norad_cat_id": 36397,
        "meta_element_set_no": 999,
        "meta_rev_at_epoch": 5780,
        "meta_bstar": 0,
        "meta_mean_motion_dot": -2.27e-06,
        "meta_mean_motion_ddot": 0,
        "tle_line1": "1 36397U 10006A   25348.25869669 -.00000227  00000+0  00000+0 0  9998",
        "tle_line2": "2 36397   0.0087 325.1292 0001988 301.2210 193.7661  1.00271828 57806"
      },
      "geometry": {
        "type": "Point",
        "coordinates": [
          -12.658795206865134,
          0.009454589561932415
        ]
      }
    },
    {
      "type": "Feature",
      "properties": {
        "norad_id": 37185,
        "name": "XM-5",
        "group": "intelsat",
        "lat": 0.027822188877889373,
        "lon": -51.68014530109008,
        "alt_km": 35793.38245717588,
        "timestamp": "2025-12-14T22:38:40.427073+00:00",
        "meta_object_name": "XM-5",
        "meta_object_id": "2010-053A",
        "meta_epoch": "2025-12-14T06:01:17.469696",
        "meta_mean_motion": 1.0026902,
        "meta_eccentricity": 0.0001609,
        "meta_inclination": 0.0629,
        "meta_ra_of_asc_node": 272.3981,
        "meta_arg_of_pericenter": 230.4692,
        "meta_mean_anomaly": 275.4367,
        "meta_ephemeris_type": 0,
        "meta_classification_type": "U",
        "meta_norad_cat_id": 37185,
        "meta_element_set_no": 999,
        "meta_rev_at_epoch": 5562,
        "meta_bstar": 0,
        "meta_mean_motion_dot": -5e-08,
        "meta_mean_motion_ddot": 0,
        "tle_line1": "1 37185U 10053A   25348.25089664 -.00000005  00000+0  00000+0 0  9999",
        "tle_line2": "2 37185   0.0629 272.3981 0001609 230.4692 275.4367  1.00269020 55629"
      },
      "geometry": {
        "type": "Point",
        "coordinates": [
          -51.68014530109008,
          0.027822188877889373
        ]
      }
    }
  ]
}